OBJECT_NAME,OBJECT_ID,EPOCH,MEAN_MOTION,ECCENTRICITY,INCLINATION,RA_OF_ASC_NODE,ARG_OF_PERICENTER,MEAN_ANOMALY,EPHEMERIS_TYPE,CLASSIFICATION_TYPE,NORAD_CAT_ID,ELEMENT_SET_NO,REV_AT_EPOCH,BSTAR,MEAN_MOTION_DOT,MEAN_MOTION_DDOT
2025-313AE,2025-313AE,2026-06-02T16:41:15.665280,15.22455236,.00150142,97.3906,228.4686,62.5309,297.7452,0,U,67276,999,2374,.34527183E-3,.7946E-4,0
2025-313AF,2025-313AF,2026-06-04T03:26:31.301376,15.22455083,.0015007,97.3913,229.9007,59.5181,300.7535,0,U,67277,999,2396,.3127E-3,.7189E-4,0
2025-313AG,2025-313AG,2026-06-03T20:56:15.835200,15.22440320,.0016169,97.3901,229.6446,57.4162,302.8633,0,U,67278,999,2393,.16077E-3,.3661E-4,0
GALAPAGOS-UTE-SWSU,2025-313AH,2026-06-03T03:27:54.564192,15.22633206,.00153115,97.3927,228.9773,57.6985,302.5732,0,U,67279,999,2381,.34806259E-3,.8054E-4,0
2025-313AJ,2025-313AJ,2026-06-03T03:28:38.413920,15.22296216,.00144254,97.3999,229.1113,55.4978,304.7618,0,U,67280,999,2381,.2552559E-3,.5825E-4,0
2025-313AK,2025-313AK,2026-06-03T04:49:16.940064,15.22394363,.0013124,97.3884,228.9589,55.2213,305.0257,0,U,67281,999,2382,.25608E-3,.5859E-4,0
2025-313AL,2025-313AL,2026-06-03T03:43:46.053696,15.22887711,.0011731,97.3928,229.1035,55.1545,305.0793,0,U,67282,999,2382,.26957226E-3,.626E-4,0
HORS 5,2025-313AM,2026-06-03T04:01:30.104256,15.23744396,.00113596,97.3938,229.2576,54.7711,305.4588,0,U,67283,999,2383,.31147326E-3,.7431E-4,0
LOBACHEVSKY (RS83S),2025-313AN,2026-06-04T00:31:14.436768,15.22754187,.0011763,97.3921,229.9176,51.9603,308.2693,0,U,67284,999,2395,.28139E-3,.6511E-4,0
NASBSAT-2,2025-313AP,2026-06-04T02:22:25.303008,15.23540905,.0011341,97.3919,230.1066,52.9032,307.3240,0,U,67285,999,2397,.31404E-3,.7447E-4,0
MULE 4T,2025-313AQ,2026-06-03T03:44:31.437024,15.24013752,.00106085,97.3935,229.2784,51.7503,308.4687,0,U,67286,999,2383,.41811641E-3,.10081E-3,0
LUCA (RS90S),2025-313AR,2026-06-03T23:45:27.295200,15.24319788,.0010547,97.3935,230.1460,50.5519,309.6650,0,U,67287,999,2396,.39961E-3,.9719E-4,0
2025-313AS,2025-313AS,2026-06-03T04:59:20.881248,15.22994806,.0012424,97.3926,229.1869,45.5095,314.7155,0,U,67288,999,2383,.26869E-3,.626E-4,0
NASBSAT-1,2025-313AT,2026-06-03T14:06:51.056352,15.25661793,.0010052,97.3934,229.9189,51.6786,308.5354,0,U,67289,999,2391,.57762E-3,.14665E-3,0
SAKHACUBE-CHOLBON (RS18S),2025-313AU,2026-06-03T04:21:58.589568,15.24621972,.0010172,97.3924,229.3926,52.3667,307.8492,0,U,67290,999,2384,.43076E-3,.10577E-3,0
QMR-KWT-2 (RS95S),2025-313AV,2026-06-03T04:22:52.893696,15.25908449,.0009621,97.3931,229.5423,52.2694,307.9415,0,U,67291,999,2385,.59595E-3,.15245E-3,0
SITRO-AIS-64,2025-313AW,2026-06-03T10:25:10.663680,15.24730655,.00099056,97.3940,229.6747,51.7759,308.4369,0,U,67292,999,2388,.45178267E-3,.11133E-3,0
SCORPION (RS89S),2025-313AX,2026-06-04T00:08:26.221056,15.22705226,.0011882,97.3936,229.9737,41.6431,318.5708,0,U,67293,999,2395,.20959E-3,.4824E-4,0
SITRO-AIS-63,2025-313AY,2026-06-03T04:01:25.176864,15.24771929,.00097925,97.3944,229.4274,53.6847,306.5294,0,U,67294,999,2384,.46867466E-3,.11567E-3,0
ZORKIY-2M-5,2025-313AZ,2026-06-03T04:59:20.355936,15.23969323,.0011139,97.3940,229.3620,43.5200,316.6914,0,U,67295,999,2384,.35997E-3,.8657E-4,0
SITRO-AIS-62,2025-313BA,2026-06-04T00:15:00.434016,15.24936727,.0009615,97.3943,230.2908,51.2583,308.9513,0,U,67296,999,2397,.4559E-3,.11304E-3,0
SITRO-AIS-61,2025-313BB,2026-06-04T00:05:50.898048,15.25002929,.000936,97.3946,230.3037,53.6154,306.5946,0,U,67297,999,2397,.45364E-3,.11269E-3,0
2025-313BC,2025-313BC,2026-06-03T04:54:12.896352,15.45781682,.0002921,97.3863,231.2868,26.0364,334.1031,0,U,67298,999,2110,.32708E-2,.161375E-2,0
2025-313BD,2025-313BD,2026-06-04T03:39:33.422688,15.48052412,.0001189,97.3850,232.4367,23.8391,336.2914,0,U,67299,999,2413,.36534E-2,.195743E-2,0
TIANHUI 7,2025-314A,2026-06-02T19:14:58.797024,15.25777547,.000305,97.4008,229.6058,20.1921,339.9437,0,U,67300,999,2359,.24994501E-3,.6312E-4,0
SHIJIAN-29A (SJ-29A),2025-315A,2026-06-03T22:30:40.317696,1.00270298,.00033894,3.3639,95.4366,17.9322,189.9610,0,U,67302,999,148,0,-.57E-6,0
CSG-3,2026-001A,2026-06-04T00:49:38.116416,14.82159385,.0001306,97.8886,338.8270,93.4711,266.6651,0,U,67304,999,2251,.52752E-4,.368E-5,0
STARLINK-36490,2026-002A,2026-06-04T04:54:51.161184,15.27635088,.0000899,42.9971,196.3835,318.5098,41.5685,0,U,67305,999,2437,.87847E-3,.24031E-3,0
STARLINK-36488,2026-002B,2026-06-03T07:59:34.152288,15.27602166,.00020618,43.0028,201.8920,277.5720,82.4897,0,U,67306,999,2417,.77653622E-3,.21183E-3,0
STARLINK-36481,2026-002C,2026-06-01T11:42:50.089536,15.27594608,.00019043,43.0058,212.1250,280.5572,79.5065,0,U,67307,999,2389,.71777325E-3,.19551E-3,0
STARLINK-36449,2026-002D,2026-06-01T11:31:43.422816,15.27600447,.00030094,43.0047,212.0622,278.2288,81.8222,0,U,67308,999,2395,.64566105E-3,.17559E-3,0
STARLINK-36482,2026-002E,2026-06-01T05:09:33.158304,15.27591226,.00010983,42.9997,213.5072,192.8647,167.2176,0,U,67309,999,2385,.60022335E-3,.16297E-3,0
STARLINK-36491,2026-002F,2026-06-01T11:57:38.437920,15.27592946,.00019107,43.0017,212.2047,259.6359,100.4277,0,U,67310,999,2389,.73830348E-3,.20118E-3,0
STARLINK-36495,2026-002G,2026-06-01T11:11:21.744960,15.27589310,.00027914,43.0058,211.9462,248.8494,111.2059,0,U,67311,999,2405,.5683523E-3,.15415E-3,0
STARLINK-36485,2026-002H,2026-06-01T10:51:01.071936,15.27587743,.00018491,42.9985,211.8409,275.1105,84.9536,0,U,67312,999,2389,.70057807E-3,.19071E-3,0
STARLINK-36445,2026-002J,2026-06-03T14:21:44.735616,15.27617021,.00003551,42.9960,200.4365,296.1395,63.9420,0,U,67313,999,2437,.68235636E-3,.18584E-3,0
STARLINK-36476,2026-002K,2026-06-01T05:20:39.275520,15.27588690,.00009784,43.0000,213.5620,225.3060,134.7712,0,U,67314,999,2384,.55464683E-3,.15036E-3,0
STARLINK-36463,2026-002L,2026-06-04T04:00:03.000096,15.27584455,.0001387,42.9988,196.6653,265.1090,217.1639,0,U,67315,999,585,.53005E-3,.14354E-3,0
STARLINK-36461,2026-002M,2026-06-01T11:02:07.367136,15.27589597,.00013885,43.0000,211.9018,282.5844,77.4852,0,U,67316,999,2405,.55435804E-3,.15028E-3,0
STARLINK-36450,2026-002N,2026-06-02T05:26:19.116960,15.27591869,.00009072,42.9951,208.2061,357.0046,3.0800,0,U,67317,999,2416,.82582971E-3,.22541E-3,0
STARLINK-36498,2026-002P,2026-06-02T11:17:01.573440,15.27596249,.00010665,42.9991,206.5871,254.9671,105.1063,0,U,67318,999,2410,.59152364E-3,.16059E-3,0
STARLINK-36470,2026-002Q,2026-06-01T11:50:13.906464,15.27567447,.00017313,43.0032,212.1612,262.6030,97.4625,0,U,67319,999,2395,.70610827E-3,.19212E-3,0
STARLINK-36500,2026-002R,2026-06-01T12:16:08.105952,15.27591478,.00018985,42.9992,212.2908,254.8351,105.2291,0,U,67320,999,2395,.7163388E-3,.19509E-3,0
STARLINK-36462,2026-002S,2026-06-01T11:59:29.798016,15.27594875,.00010095,42.9956,212.2069,110.8676,249.2284,0,U,67321,999,2389,.75334426E-3,.20535E-3,0
STARLINK-36434,2026-002T,2026-06-01T05:48:24.831648,15.27589937,.0001441,42.9999,213.7120,260.9597,99.1092,0,U,67322,999,2385,.98996247E-3,.27088E-3,0
STARLINK-36497,2026-002U,2026-06-02T11:05:56.063616,15.27596939,.00002922,42.9984,206.5257,44.6579,315.4296,0,U,67323,999,2410,.79484097E-3,.21686E-3,0
STARLINK-36471,2026-002V,2026-06-01T11:13:13.156896,15.27592280,.00019414,43.0007,211.9549,259.0430,101.0204,0,U,67324,999,2389,.9220314E-3,.25207E-3,0
STARLINK-36473,2026-002W,2026-06-01T11:18:46.850112,15.27582079,.000148,43.0034,211.9859,242.6971,117.3730,0,U,67325,999,2405,.7383256E-3,.20112E-3,0
STARLINK-36430,2026-002X,2026-06-03T14:34:29.436096,15.27609804,.00010339,42.9945,199.6312,44.4038,315.6896,0,U,67326,999,2438,.56433337E-3,.15314E-3,0
STARLINK-36501,2026-002Y,2026-06-01T04:39:56.770848,15.27594139,.00002767,42.9956,213.3430,234.0932,125.9894,0,U,67327,999,2385,.67342992E-3,.18323E-3,0
STARLINK-36489,2026-002Z,2026-06-02T11:24:25.925184,15.27596939,.0000895,42.9987,206.6313,328.1831,31.8967,0,U,67328,999,2420,.61028E-3,.16578E-3,0
STARLINK-36496,2026-002AA,2026-06-01T05:13:15.154464,15.27592666,.00008117,42.9992,213.5211,222.1573,137.9216,0,U,67329,999,2383,.7368125E-3,.20076E-3,0
STARLINK-36483,2026-002AB,2026-06-01T05:44:42.599616,15.27588776,.00022611,43.0011,213.6923,282.1014,77.9584,0,U,67330,999,2401,.63271423E-3,.17194E-3,0
STARLINK-36494,2026-002AC,2026-06-01T11:35:25.462176,15.27587958,.00018483,43.0040,212.0722,253.1957,106.8692,0,U,67331,999,2405,.63276618E-3,.17195E-3,0
STARLINK-36492,2026-002AD,2026-06-02T05:28:10.045056,15.27591552,.0000199,42.9943,208.2087,49.0129,311.0739,0,U,67332,999,2416,.85836119E-3,.23442E-3,0
STARLINK-36427,2026-002AE,2026-06-02T11:11:28.582656,15.27605963,.00003819,42.9996,206.5452,275.8739,84.2069,0,U,67333,999,2410,.7940532E-3,.2167E-3,0
STARLINK-35343,2026-003A,2026-06-02T00:57:41.362848,15.27596310,.00008713,42.9955,110.7500,183.7426,176.3419,0,U,67334,999,2172,.6779732E-3,.1845E-3,0
STARLINK-36486,2026-003B,2026-06-01T07:10:30.201888,15.27607677,.00020419,43.0022,114.6465,255.2942,104.7684,0,U,67335,999,2161,.98974192E-3,.27097E-3,0
STARLINK-36480,2026-003C,2026-06-01T06:18:54.798336,15.27589700,.00013491,43.0028,115.2406,270.6798,89.3899,0,U,67336,999,2160,.63631044E-3,.17294E-3,0
STARLINK-36410,2026-003D,2026-06-01T22:26:23.116992,15.27598447,.00012055,42.9982,111.6862,184.4163,175.6679,0,U,67337,999,2170,.93782382E-3,.25649E-3,0
STARLINK-36413,2026-003E,2026-06-01T22:15:16.726752,15.27594441,.00007519,42.9983,111.6284,204.3891,155.6926,0,U,67338,999,2170,.68821326E-3,.18733E-3,0
STARLINK-36451,2026-003F,2026-06-03T00:35:35.738016,15.27623414,.00006572,42.9981,105.2402,218.4158,141.6647,0,U,67339,999,2187,.99315656E-3,.27204E-3,0
STARLINK-36339,2026-003G,2026-06-01T23:17:58.856640,15.27604821,.00012912,42.9983,111.0861,255.7616,104.3093,0,U,67340,999,2171,.11947357E-2,.32786E-3,0
STARLINK-36453,2026-003H,2026-06-04T02:59:35.450304,15.27588862,.0001413,43.0003,98.8745,268.0080,92.0609,0,U,67341,999,2204,.47782E-3,.12913E-3,0
